0 FENGYUN 1C DEB
1 30394U 99025ADH 13282.73213453  .00000363  00000-0  30359-3 0   657
2 30394 099.0775 219.2907 0090805 275.3809 145.5223 13.92940554341703
0 FENGYUN 1C DEB
1 30394U 99025ADH 13283.80807682  .00000416  00000-0  34299-3 0   666
2 30394 099.0777 220.3460 0090781 272.4195 140.9608 13.92941451341850
0 FENGYUN 1C DEB
1 30394U 99025ADH 13286.82588144  .00000276  00000-0  23861-3 0   689
2 30394 099.0785 223.3056 0090780 264.1104 154.1057 13.92945076342279
0 FENGYUN 1C DEB
1 30394U 99025ADH 13288.41757072  .00000205  00000-0  18573-3 0   691
2 30394 099.0790 224.8667 0090847 259.7210 215.8429 13.92947794342492
0 FENGYUN 1C DEB
1 30394U 99025ADH 13289.84539972  .00000096  00000-0  10483-3 0   708
2 30394 099.0792 226.2672 0090846 255.7884 175.8909 13.92949285342695
0 FENGYUN 1C DEB
1 30394U 99025ADH 13291.06463201  .00000107  00000-0  11254-3 0   717
2 30394 099.0793 227.4632 0090851 252.4205 169.9203 13.92949565342863
0 FENGYUN 1C DEB
1 30394U 99025ADH 13292.36999972  .00000192  00000-0  17610-3 0   727
2 30394 099.0793 228.7437 0090857 248.8138 235.8945 13.92949363343043
0 FENGYUN 1C DEB
1 30394U 99025ADH 13293.44573596  .00000312  00000-0  26528-3 0   730
2 30394 099.0793 229.7990 0090859 245.8475 230.3414 13.92949166343199
0 FENGYUN 1C DEB
1 30394U 99025ADH 13294.79794402  .00000456  00000-0  37277-3 0   743
2 30394 099.0793 231.1256 0090864 242.1175 171.2005 13.92948991343389
0 FENGYUN 1C DEB
1 30394U 99025ADH 13295.80363919  .00000522  00000-0  42197-3 0   753
2 30394 099.0795 232.1122 0090878 239.3500 174.4090 13.92949110343528
